{
    "links": {
        "self": "http://www.neowsapp.com/rest/v1/neo/3799730?api_key=iIulBulltgU6a56xZRHN4H3l9WmuAYTsLGpBGhQ2"
    },
    "id": "3799730",
    "neo_reference_id": "3799730",
    "name": "(2018 CA15)",
    "designation": "2018 CA15",
    "nasa_jpl_url": "http://ssd.jpl.nasa.gov/sbdb.cgi?sstr=3799730",
    "absolute_magnitude_h": 25.999,
    "estimated_diameter": {
        "kilometers": {
            "estimated_diameter_min": 0.0167785713,
            "estimated_diameter_max": 0.0375180259
        },
        "meters": {
            "estimated_diameter_min": 16.778571255,
            "estimated_diameter_max": 37.5180258915
        },
        "miles": {
            "estimated_diameter_min": 0.0104257176,
            "estimated_diameter_max": 0.0233126133
        },
        "feet": {
            "estimated_diameter_min": 55.0478077163,
            "estimated_diameter_max": 123.0906400659
        }
    },
    "is_potentially_hazardous_asteroid": false,
    "close_approach_data": [
        {
            "close_approach_date": "2018-02-04",
            "close_approach_date_full": "2018-Feb-04 18:46",
            "epoch_date_close_approach": 1517769960000,
            "relative_velocity": {
                "kilometers_per_second": "6.8684124865",
                "kilometers_per_hour": "24726.2849512347",
                "miles_per_hour": "15363.9518909491"
            },
            "miss_distance": {
                "astronomical": "0.0706450993",
                "lunar": "27.4809436277",
                "kilometers": "10568356.381218491",
                "miles": "6566872.1453815358"
            },
            "orbiting_body": "Earth"
        }
    ],
    "orbital_data": {
        "orbit_id": "1",
        "orbit_determination_date": "2018-02-26 06:22:19",
        "first_observation_date": "2018-02-12",
        "last_observation_date": "2018-02-13",
        "data_arc_in_days": 1,
        "observations_used": 10,
        "orbit_uncertainty": "9",
        "minimum_orbit_intersection": ".0695295",
        "jupiter_tisserand_invariant": "3.024",
        "epoch_osculation": "2458162.5",
        "eccentricity": ".6191374660958664",
        "semi_major_axis": "2.769510189971379",
        "inclination": "2.249748928031937",
        "ascending_node_longitude": "136.4757957775815",
        "orbital_period": "1683.46029545259",
        "perihelion_distance": "1.054802668625818",
        "perihelion_argument": "354.7232574671484",
        "aphelion_distance": "4.484217711316941",
        "perihelion_time": "2458150.943645626350",
        "mean_anomaly": "2.471271574240203",
        "mean_motion": ".2138452572789759",
        "equinox": "J2000",
        "orbit_class": {
            "orbit_class_type": "AMO",
            "orbit_class_description": "Near-Earth asteroid orbits similar to that of 1221 Amor",
            "orbit_class_range": "1.017 AU < q (perihelion) < 1.3 AU"
        }
    },
    "is_sentry_object": false
}